ONEWEB-0230             
1 48769U 21045C   24049.75650067  .00000021  00000+0  20801-4 0  9998
2 48769  87.8945  68.3200 0002020  92.7890 267.3471 13.15550508132981
ONEWEB-0237             
1 48770U 21045D   24049.74541234  .00000109  00000+0  25656-3 0  9993
2 48770  87.8953  68.2461 0002185  81.1024 279.0353 13.15549540132706
ONEWEB-0241             
1 48773U 21045G   24049.77710308 -.00000086  00000+0 -26273-3 0  9991
2 48773  87.8951  68.2845 0001834  77.1757 282.9578 13.15548966132658
ONEWEB-0243             
1 48774U 21045H   24049.96091528  .00000247  00000+0  62216-3 0  9993
2 48774  87.8954  68.2060 0002249  78.3605 281.7777 13.15561335132706
ONEWEB-0244             
1 48776U 21045K   24049.74223987  .00000116  00000+0  27483-3 0  9999
2 48776  87.8941  68.2505 0002171  91.6044 268.5335 13.15549527133283
